ELEKTRO-L 4             
1 55506U 23016A   23064.08928965 -.00000058  00000+0  00000+0 0  9997
2 55506   0.4977 285.9552 0011561  51.0633  22.9012  1.00324625   287
BLOCK DM-SL R/B         
1 55507U 23016B   23062.53344182 -.00000037  00000+0  00000+0 0  9996
2 55507   0.3734 275.9480 0096522  29.6831  53.4500  1.03217916   275
AMAZONAS NEXUS          
1 55508U 23017A   23059.03358040 -.00000536  00000+0  00000+0 0  9991
2 55508  17.1383 347.8377 7613036 184.1774 160.3234  1.03879956   259
FALCON 9 R/B            
1 55509U 23017B   23048.05522156  .00001006  00000+0  23504-2 0  9992
2 55509  24.9411 349.6435 8170614 181.2257 173.4294  1.25162264   126
PROGRESS-MS 22          
1 55560U 23018A   23063.56245575  .00021979  00000+0  39654-3 0  9995
2 55560  51.6414 126.7877 0005937  54.4365  91.8432 15.49660777385569
EOS-7                   
1 55562U 23019A   23064.19539633  .00048615  00000+0  11063-2 0  9998
2 55562  37.1847 329.8322 0008856 186.6703 173.3939 15.41950193  3547
AZAADISAT-2             
1 55563U 23019B   23064.17522888  .00060318  00000+0  12909-2 0  9995
2 55563  37.1842 329.6609 0013628 196.7775 163.2536 15.43654014  3550
JANUS-1                 
1 55564U 23019C   23064.17232762  .00133074  00000+0  26948-2 0  9993
2 55564  37.1853 329.6402 0011214 204.7878 155.2344 15.44999600  3559
SS3 R/B                 
1 55565U 23019D   23064.15506964  .00048940  00000+0  84067-3 0  9994
2 55565  37.1850 328.5349 0040104 182.1655 177.8937 15.49226113  3552
VTM R/B                 
1 55566U 23019E   23063.93121180  .00028709  00000+0  45452-3 0  9999
2 55566  37.9012 331.9628 0051975 202.3367 157.5142 15.51022749  3524
SS3 DEB                 
1 55567U 23019F   23064.17383238  .01180742  00000+0  67010-2 0  9991
2 55567  37.1821 325.8082 0038798 204.0934 155.8021 15.74466443  3589
SS3 DEB                 
1 55568U 23019G   23064.15732793  .00650777  00000+0  54656-2 0  9995
2 55568  37.1871 326.6571 0041283 198.6760 161.2493 15.66009133  3567
STARLINK-5749           
1 55569U 23020A   23064.00001157 -.01212043  00000+0 -17858-1 0  9990
2 55569  42.9973 231.2731 0001614 280.1962 286.6852 15.57542521  3271
STARLINK-5737           
1 55570U 23020B   23064.00001157 -.01210634  00000+0 -17852-1 0  9990
2 55570  42.9981 231.2772 0001348 277.0231 288.8441 15.57519629  3276
STARLINK-5739           
1 55571U 23020C   23064.00001157 -.01213803  00000+0 -17873-1 0  9995
2 55571  42.9970 231.2706 0001481 277.9533 289.9454 15.57564227  3274
STARLINK-5732           
1 55572U 23020D   23064.00001157 -.01212380  00000+0 -17821-1 0  9998
2 55572  42.9984 231.2673 0001441 277.8571 292.0705 15.57606993  3271
STARLINK-5738           
1 55573U 23020E   23064.00001157 -.01212721  00000+0 -17841-1 0  9990
2 55573  42.9973 231.2682 0001412 277.9448 290.9682 15.57585913  3271
STARLINK-5747           
1 55574U 23020F   23064.00001157 -.01214386  00000+0 -17809-1 0  9994
2 55574  42.9983 231.2597 0001375 275.5746 297.3901 15.57673930  3273
STARLINK-5745           
1 55575U 23020G   23064.00001157 -.01218034  00000+0 -17897-1 0  9996
2 55575  42.9980 231.2631 0001408 278.0334 292.9073 15.57631807  3276
STARLINK-5751           
1 55576U 23020H   23064.00001157  .00092101  00000+0  69878-3 0  9997
2 55576  43.0000 230.7472 0001549 267.0296 152.9792 15.71330343  3281
STARLINK-5752           
1 55577U 23020J   23064.00001157 -.00783061  00000+0 -94307-2 0  9996
2 55577  42.9976 231.2010 0001717 294.0383 302.2013 15.62453875  3271
STARLINK-5713           
1 55578U 23020K   23064.00001157 -.01212382  00000+0 -17761-1 0  9999
2 55578  42.9981 231.2534 0001443 275.8124 299.4091 15.57695941  3274
STARLINK-5754           
1 55579U 23020L   23064.00001157 -.01212777  00000+0 -17747-1 0  9992
2 55579  42.9976 231.2411 0001412 276.8703 303.0913 15.57726558  3277
STARLINK-5757           
1 55580U 23020M   23063.86179782  .00009569  00000+0  76340-4 0  9994
2 55580  42.9991 231.5727 0002081 249.9211 110.1433 15.71352934  3269
STARLINK-5753           
1 55581U 23020N   23064.00001157 -.01095861  00000+0 -15949-1 0  9990
2 55581  42.9977 231.2553 0001132 279.6097 294.6451 15.57584977  3273
STARLINK-5741           
1 55582U 23020P   23064.18213641  .00129810  00000+0  97718-3 0  9998
2 55582  43.0014 229.6902 0000127 316.1580  43.9278 15.71375105  3318
STARLINK-5742           
1 55583U 23020Q   23064.00001157 -.01213963  00000+0 -17797-1 0  9990
2 55583  42.9976 231.2494 0001402 272.1027 304.5939 15.57681192  3278
STARLINK-5736           
1 55584U 23020R   23064.00001157 -.01217924  00000+0 -17858-1 0  9990
2 55584  42.9981 231.2475 0001376 273.0033 304.9356 15.57686940  3274
STARLINK-5769           
1 55585U 23020S   23064.18264705  .00072137  00000+0  54900-3 0  9993
2 55585  43.0015 229.6899 0000876 257.3774 102.6996 15.71347081  3311
STARLINK-5767           
1 55586U 23020T   23063.91667824 -.01145261  00000+0 -16530-1 0  9990
2 55586  42.9983 231.7338 0001519 282.3897 190.6828 15.57921721  1306
STARLINK-5727           
1 55587U 23020U   23064.00001157 -.00779187  00000+0 -93958-2 0  9992
2 55587  42.9980 231.1864 0001640 282.1249 320.4117 15.62410412  3274
STARLINK-5728           
1 55588U 23020V   23064.00001157 -.01210195  00000+0 -17648-1 0  9994
2 55588  42.9984 231.2331 0001472 280.2523 303.7464 15.57810834  3271
STARLINK-5697           
1 55589U 23020W   23064.00001157 -.01222124  00000+0 -17867-1 0  9993
2 55589  42.9979 231.2368 0001405 276.0041 305.9760 15.57774530  3275
STARLINK-5762           
1 55590U 23020X   23064.00001157 -.01200273  00000+0 -17462-1 0  9997
2 55590  42.9989 231.2274 0001160 276.5610 309.4501 15.57851289  3278
STARLINK-5760           
1 55591U 23020Y   23064.00001157 -.01219831  00000+0 -17816-1 0  9991
2 55591  42.9980 231.2342 0001489 281.4642 301.5256 15.57793904  3279
STARLINK-5759           
1 55592U 23020Z   23064.00001157 -.01207934  00000+0 -17555-1 0  9993
2 55592  42.9987 231.2234 0001383 270.2016 317.8238 15.57895916  3277
STARLINK-5703           
1 55593U 23020AA  23064.00001157 -.01214271  00000+0 -17698-1 0  9994
2 55593  42.9980 231.2295 0001387 273.2241 311.7801 15.57835734  3276
STARLINK-5750           
1 55594U 23020AB  23064.00001157 -.01207477  00000+0 -17533-1 0  9993
2 55594  42.9986 231.2209 0001355 276.5891 312.4400 15.57918070  3278
STARLINK-5740           
1 55595U 23020AC  23064.33335648 -.01166191  00000+0 -17606-1 0  9993
2 55595  42.9983 229.2523 0001223 261.8250  36.8505 15.56787428  3321
STARLINK-5729           
1 55596U 23020AD  23064.00001157 -.01208495  00000+0 -17560-1 0  9996
2 55596  42.9986 231.2174 0001393 277.1345 313.3760 15.57901928  3277
STARLINK-5743           
1 55597U 23020AE  23064.18254092  .00108444  00000+0  81966-3 0  9997
2 55597  43.0018 229.6894 0000660 271.4736  88.6057 15.71356639  3318
STARLINK-5756           
1 55598U 23020AF  23064.33335648  .00005914  00000+0  48537-4 0  9998
2 55598  42.9995 228.4298 0001507 263.9872   7.2384 15.71341542  3333
STARLINK-5761           
1 55599U 23020AG  23063.90026637 -.00326107  00000+0 -24452-2 0  9996
2 55599  42.9991 230.9875 0002016 265.7155  94.3483 15.72628362  3267
STARLINK-5755           
1 55600U 23020AH  23063.87279109  .00099563  00000+0  75301-3 0  9990
2 55600  42.9988 231.6622 0001807 240.5366 119.5322 15.71374948  3265
STARLINK-5744           
1 55601U 23020AJ  23064.00001157 -.01205318  00000+0 -17495-1 0  9991
2 55601  42.9986 231.2142 0001326 276.0483 315.4653 15.57922999  3271
STARLINK-5764           
1 55602U 23020AK  23063.83333643 -.00140344  00000+0 -10314-2 0  9990
2 55602  42.9996 231.3441 0002955 240.7727 119.2846 15.72536483  3263
STARLINK-5735           
1 55603U 23020AL  23063.87300471  .00127963  00000+0  96390-3 0  9997
2 55603  42.9987 231.6625 0001657 249.9688 110.1002 15.71366179  3262
STARLINK-5748           
1 55604U 23020AM  23063.93030754  .00122361  00000+0  92036-3 0  9999
2 55604  42.9998 231.2335 0001902 253.0583 107.0077 15.71420200  3276
STARLINK-5725           
1 55605U 23020AN  23063.93624798  .00107791  00000+0  81377-3 0  9993
2 55605  42.9984 231.2771 0001614 251.8324 108.2368 15.71386380  3271
STARLINK-5723           
1 55606U 23020AP  23064.58334491  .00375257  62510-4  99951-3 0  9994
2 55606  42.9979 224.7913 0013384  81.7095 297.1607 15.93603957  3396
STARLINK-5700           
1 55607U 23020AQ  23063.87237217  .00032110  00000+0  24719-3 0  9993
2 55607  42.9989 231.6599 0001104 272.8385  87.2357 15.71372563  3265
STARLINK-5726           
1 55608U 23020AR  23063.93572380  .00124092  00000+0  93438-3 0  9999
2 55608  42.9993 231.2743 0001488 257.2499 102.8203 15.71389267  3270
STARLINK-5719           
1 55609U 23020AS  23063.93614209  .00071859  00000+0  54625-3 0  9994
2 55609  42.9983 231.2760 0001494 246.3081 113.7630 15.71375380  3278
STARLINK-5722           
1 55610U 23020AT  23063.87173929  .00070897  00000+0  53911-3 0  9996
2 55610  42.9987 231.6541 0002339 240.6447 119.4188 15.71371020  3264
STARLINK-5730           
1 55611U 23020AU  23063.93540658  .00106640  00000+0  80503-3 0  9994
2 55611  42.9991 231.2720 0001465 252.5545 107.5162 15.71392496  3276
STARLINK-5734           
1 55612U 23020AV  23063.87163325  .00067271  00000+0  51190-3 0  9996
2 55612  42.9986 231.6523 0001793 252.5655 107.5017 15.71373512  3268
STARLINK-5715           
1 55613U 23020AW  23063.87205592  .00077023  00000+0  58485-3 0  9990
2 55613  42.9984 231.6561 0001377 257.1992 102.8722 15.71377296  3266
STARLINK-5714           
1 55614U 23020AX  23064.00001157  .00167956  00000+0  10821-2 0  9994
2 55614  42.9992 230.6452 0004812 316.1525 145.7905 15.74874100  3289
STARLINK-5712           
1 55615U 23020AY  23063.87152962  .00055261  00000+0  42160-3 0  9997
2 55615  42.9988 231.6522 0002132 261.4684  98.5942 15.71380156  3269
